K10P66R 19.4   0.15 K14C9 322.01974  319.38698  292.83488   17.57268  0.6861797  0.19673160   2.9278802  3 MPO190729   167   1  103 days 0.43 M-v 3Eh MPCALB     A803          2010 PR66          20101102
K10RE7A 19.3   0.15 K14C9  82.32255  116.67686    8.35374    5.81531  0.6557319  0.31085652   2.1582217  1 MPO297900   138   4 2010-2014 0.45 M-v 3Eh MPCALB     8C03          2010 RA147         20140504
K10RI1F 20.7   0.15 K14C9  85.49903    2.18292   51.16646    6.24883  0.5471225  0.30034272   2.2082995  4 MPO192619   124   1  139 days 0.36 M-v 3Eh MPCADO     A804          2010 RF181         20110128
K10S13H 21.2   0.15 K14C9 214.88023   10.96885  190.61203   13.86153  0.1369640  0.74422695   1.2059587  2 E2014-U41    90   2 2010-2014 0.34 M-v 3Eh MPCADO     8804          2010 SH13          20141024
K10S16O 20.5   0.15 K14C9 271.53659  108.73213   40.43706   14.52431  0.0753291  0.98259252   1.0020447  2 MPO311339   193   2 2010-2014 0.47 M-v 3Eh MPCW       8803          2010 SO16          20141003
K10S41C 19.9   0.15 K14C9 189.22452  266.27330  236.85025    0.24765  0.6076407  0.38699456   1.8649455  2 MPO301669   330   2 2010-2014 0.35 M-v 3Eh MPCW       8803          2010 SC41          20140701
K10T19H 20.5   0.15 K14C9  75.15140  201.40530  254.26026    6.82611  0.3101476  0.55619473   1.4643722  1 MPO262179   153   2 2010-2013 0.43 M-v 3Eh MPCS       8804          2010 TH19          20130610
K10T54K 19.3   0.15 K14C9 335.01253  222.94180   28.18369   30.80228  0.4948357  0.39472288   1.8405227  2 MPO234410    60   2 2010-2012 0.35 M-v 3Eh MPCADO     8803          2010 TK54          20120516
K10T54P 21.7   0.15 K14C9  32.77081   67.06846  351.76721    3.47349  0.5970977  0.26691740   2.3890109  0 MPO192171   102   2 2000-2011 0.34 M-v 3Eh MPCALB     8803          2010 TP54          20110126
K10T55P 20.5   0.15 K14C9  78.74012   69.24536  233.12261    3.33201  0.6712650  0.27425017   2.3462346  5 MPO190734    60   1   58 days 0.45 M-v 3Eh MPCADO     A803          2010 TP55          20101208
K10TE9S 20.0   0.15 K14C9   9.25772   13.23762  128.14882    3.42544  0.3903001  0.53762802   1.4978953  2 MPO311341    95   4 2001-2012 0.38 M-v 3Eh MPCALB     8C03          2010 TS149         20121231
K10TE9U 20.7   0.15 K14C9  80.20947   91.66929   59.74821    1.97153  0.8284377  0.30174198   2.2014673  2 MPO298695   101   2 2010-2014 0.35 M-v 3Eh MPCW       8803          2010 TU149         20140624
K10TE9V 18.6   0.15 K14C9 274.04328   42.70541   78.71527    9.80614  0.5189461  0.44508321   1.6989290  0 MPO266930   252   4 2002-2013 0.39 M-v 3Eh MPCALB     8C03          2010 TV149         20130627
K10TG8X 20.0   0.15 K14C9  60.81269  101.47016   33.01875   26.00604  0.5234123  0.54604038   1.4824710  6 MPO186428   180   1   37 days 0.44 M-v 3Eh MPCALB     A803          2010 TX168         20101117
K10U00D 21.1   0.15 K14C9 285.10329  262.26943   23.77210   26.28878  0.2640177  0.85714584   1.0975717  5 MPO190736   190   1   42 days 0.32 M-v 3Eh MPCALB     A803          2010 UD            20101128
K10U07G 21.4   0.15 K14C9  50.24980  101.93292   25.95857   16.19243  0.7812830  0.28229507   2.3014446  8 MPO186437    23   1    2 days 0.35 M-v 3Eh MPCK       A803          2010 UG7           20101029
K10U07Q 20.1   0.15 K14C9  40.51124   76.26873  237.15600    4.51788  0.6799764  0.25677301   2.4515258  1 MPO297901   173   2 2010-2014 0.38 M-v 3Eh MPCADO     8803          2010 UQ7           20140525
K10U07S 19.0   0.15 K14C9 163.47005  248.07961  240.92565   55.14608  0.6355568  0.36189429   1.9502108  6 MPO190736    68   1   16 days 0.44 M-v 3Eh MPCALB     A803          2010 US7           20101114
K10U07T 19.6   0.15 K14C9  47.48101  277.16829   65.91996   25.42675  0.6605642  0.49461860   1.5835159  2 MPO292158    63   4 2010-2014 0.38 M-v 3Eh MPCALB     8C03          2010 UT7           20140326
K10U08K 19.9   0.15 K14C9  70.29647  135.42075   11.54290    1.86878  0.7005701  0.30524035   2.1846142  2 MPO301675   111   2 2010-2014 0.47 M-v 3Eh MPCW       8803          2010 UK8           20140726
K10V00Z 19.4   0.15 K14C9  19.90025  215.66552  181.95991    8.45083  0.5899498  0.25720896   2.4487549  1 E2014-U02    87   2 2010-2014 0.42 M-v 3Eh MPCALB     8804          2010 VZ            20141015
K10V01G 20.6   0.15 K14C9 282.87449  100.36946  353.98083   12.36150  0.5317403  0.44542677   1.6980553  1 MPO301679    57   4 2010-2014 0.62 M-v 3Eh MPCW       8803          2010 VG1           20140703
K10V11T 21.5   0.15 K14C9 295.09433   65.58078  249.56358    2.47800  0.6117967  0.42412109   1.7544573  5 MPO190740   145   1   41 days 0.43 M-v 3Eh MPCALB     A803          2010 VT11          20101213
K10V72D 21.5   0.15 K14C9 116.53890  310.16132  224.11836   19.22431  0.1814889  1.11978531   0.9184303  7 MPO186472    61   1    9 days 0.52 M-v 3Eh MPCALB     A802          2010 VD72          20101118
K10W08V 21.9   0.15 K14C9 124.24272  287.58306   55.58009    8.41448  0.6705613  0.31711949   2.1297114  6 MPO190043    80   1   37 days 0.47 M-v 3Eh MPCALB     A803          2010 WV8           20110105
K10W08Z 20.7   0.15 K14C9 146.57196  200.17417  284.36322    3.70862  0.5026948  0.35560131   1.9731517  4 MPO196791   130   1  135 days 0.48 M-v 3Eh MPCADO     A803          2010 WZ8           20110413
K10X11C 18.7   0.15 K14C9 330.24281  121.19170   94.30952    9.10348  0.8499781  0.24704114   2.5154935  4 MPO205826    70   2 2010-2011 0.44 M-v 3Eh MPCW       8803          2010 XC11          20110823
K10X15C 21.4   0.15 K14C9 310.82066  157.60404   94.50933    8.38153  0.4166803  1.56406219   0.7350215  3 MPO243480   141   2 2010-2012 0.38 M-v 3Eh MPCW       8802          2010 XC15          20121125
K10X24B 21.8   0.15 K14C9 205.16509  285.74063  263.42540    5.53029  0.4390250  0.67600583   1.2857872  3 MPO205826    81   2 2010-2011 0.37 M-v 3Eh MPCALB     8803          2010 XB24          20110830
K10X25C 20.9   0.15 K14C9 232.98279  237.12015  304.05393    2.97760  0.5281739  0.42833720   1.7429256  3 MPO200305   101   1  178 days 0.46 M-v 3Eh MPCW       A803          2010 XC25          20110604
K10X68A 21.7   0.15 K14C9 294.08271  100.98715   74.11792   61.24562  0.3061896  0.74160971   1.2087944  9 MPO190111    23   1    1 days 0.48 M-v 3Eh MPCH       A803          2010 XA68          20101215
K10X69P 21.4   0.15 K14C9  59.20591  197.27726  199.86768   14.60409  0.3431523  0.52363338   1.5244663  6 MPO192644    40   1   53 days 0.49 M-v 3Eh MPCADO     A804          2010 XP69          20110131
K10X72X 21.9   0.15 K14C9  57.44827  334.41703  279.10548    4.48105  0.2833775  1.14839882   0.9031105  5 MPO194127    30   1   77 days 0.39 M-v 3Eh MPCADO     A802          2010 XX72          20110302
K10X72Y 18.5   0.15 K14C9 149.14667  307.01904   34.45766   31.48077  0.2288827  0.81684332   1.1333835  5 MPO192644    23   1   58 days 0.43 M-v 3Eh MPCALB     A803          2010 XY72          20110210
K10Y00B 20.7   0.15 K14C9 234.95559   94.23904  314.69669    3.60373  0.4944956  0.40073828   1.8220579  5 MPO194128   197   1   71 days 0.45 M-v 3Eh MPCADO     A803          2010 YB            20110225
K11A05K 21.5   0.15 K14C9 196.91418  325.62963  316.92787    5.51002  0.2300174  0.76104231   1.1881288  6 MPO192645    18   1   20 days 0.23 M-v 3Eh MPCALB     A803          2011 AK5           20110128
K11A12M 19.5   0.15 K14C9 234.61177  237.65139  124.85521   38.52845  0.5376298  0.39046447   1.8538804  3 MPO286661    56   2 2011-2014 0.38 M-v 3Eh MPCW       8803          2011 AM12          20140225
K11A24M 20.4   0.15 K14C9 143.85888  214.81370  127.25797    9.13524  0.1497292  0.77059764   1.1782866  5 MPO194129   111   1   49 days 0.49 M-v 3Eh MPCALB     A804          2011 AM24          20110301
K11A26T 21.6   0.15 K14C9  39.58847  122.76932  245.31675    1.71720  0.6978492  0.26314754   2.4117734  7 MPO192648    25   1   17 days 0.40 M-v 3Eh MPCALB     A803          2011 AT26          20110128
K11A37H 19.5   0.15 K14C9   2.87311  322.38953  102.12431    9.65315  0.6716582  0.24254102   2.5465131  1 E2014-T67    83   2 2011-2014 0.35 M-v 3Eh MPCW       8803          2011 AH37          20141012
K11B10X 18.5   0.15 K14C9 297.61390  348.30531   79.30556    9.68822  0.6385622  0.20695094   2.8306822  4 MPO198990   107   1   96 days 0.43 M-v 3Eh MPCADO     A804          2011 BX10          20110430
K11B15T 21.8   0.15 K14C9 254.83854  308.26793  105.75665    1.66507  0.3029022  0.66908002   1.2946449  1 MPO288493   164   4 2007-2014 0.39 M-v 3Eh MPCALB     8C03          2011 BT15          20140218
K11B18X 18.0   0.15 K14C9 246.64678  303.89754  311.00254   14.54643  0.7297548  0.20201650   2.8765912  2 MPO215177    61   2 2011-2011 0.37 M-v 3Eh MPCALB     9803          2011 BX18          20111128
K11B18Y 20.9   0.15 K14C9  61.30928  239.93714  135.36629    3.64720  0.7814340  0.28861736   2.2677112  6 MPO194133    75   1   34 days 0.47 M-v 3Eh MPCADO     A803          2011 BY18          20110302
K11B24N 20.9   0.15 K14C9 279.20087   61.75705  195.79625    3.93457  0.4121156  0.51341049   1.5446363  1 MPO273962    65   3 2011-2013 0.40 M-v 3Eh MPCALB     8803          2011 BN24          20130915
K11B24O 18.8   0.15 K14C9  12.68482  178.59546   91.51176   20.36827  0.2778179  0.60774512   1.3803474  2 MPO285730    97   3 2008-2014 0.31 M-v 3Eh MPCALB     8803          2011 BO24          20140123
K11B38E 18.4   0.15 K14C9 299.33600  302.53040  321.43260    8.15812  0.7114429  0.23117767   2.6292919  3 MPO211771   145   2 2011-2011 0.33 M-v 3Eh MPCADO     8803          2011 BE38          20111021
K11B45M 21.4   0.15 K14C9 188.88366   62.50424  302.89289    5.35215  0.8041193  0.37051525   1.9198413  6 MPO194135    46   1   39 days 0.31 M-v 3Eh MPCALB     A803          2011 BM45          20110310
K11B59O 21.2   0.15 K14C9 171.55529  221.27027  343.59317    4.75053  0.4642027  0.39796697   1.8305069  4 MPO201144   234   1  134 days 0.45 M-v 3Eh MPCALB     A803          2011 BO59          20110613
